ASTROCAST-0401          
1 55110U 23001DF  26068.71172895  .00009750  00000+0  37868-3 0  9995
2 55110  97.5547 160.5206 0008142 188.4231 171.6872 15.26258462176022
STARLINK-30955          
1 58417U 23180R   26068.31578766  .00000657  00000+0  33361-4 0  9991
2 58417  43.0014  54.2327 0000154 229.9760 130.1078 15.27581809127575
